NORAD_CAT_ID,OBJECT_NAME,OBJECT_TYPE,EPOCH,MEAN_MOTION,ECCENTRICITY,INCLINATION,RA_OF_ASC_NODE,ARG_OF_PERICENTER,MEAN_ANOMALY,BSTAR,MEAN_MOTION_DOT,MEAN_MOTION_DDOT,TLE_LINE0,TLE_LINE1,TLE_LINE2,SEMIMAJOR_AXIS,PERIOD,APOGEE,PERIGEE,DECAYED
53176.0,STARLINK-4294,PAYLOAD,2024-05-13 12:15:27,15.08873436,7.54e-05,53.2159,255.136,81.8662,278.2415,0.0016315,0.00025797,0.0,0 STARLINK-4294,1 53176U 22083AW  24134.51073642  .00025797  00000-0  16315-2 0  9997,2 53176  53.2159 255.1360 0000754  81.8662 278.2415 15.08873436101149,6917.778,95.435,540.165,539.122,0.0
53176.0,STARLINK-4294,PAYLOAD,2024-05-13 17:01:36,15.08893979,0.0001295,53.2165,254.245,77.5453,282.5684,0.0011286,0.00017746,0.0,0 STARLINK-4294,1 53176U 22083AW  24134.70944613  .00017746  00000-0  11286-2 0  9990,2 53176  53.2165 254.2450 0001295  77.5453 282.5684 15.08893979101811,6917.715,95.434,540.476,538.685,0.0
53176.0,STARLINK-4294,PAYLOAD,2024-05-15 00:49:17,15.08865186,7.16e-05,53.215,248.2973,286.8429,73.2485,0.001319,0.00020781,0.0,0 STARLINK-4294,1 53176U 22083AW  24136.03423377  .00020781  00000-0  13190-2 0  9996,2 53176  53.2150 248.2973 0000716 286.8429  73.2485 15.08865186102019,6917.803,95.436,540.164,539.173,0.0
53176.0,STARLINK-4294,PAYLOAD,2024-05-15 11:57:00,15.08851141,0.0002376,53.2134,246.2146,77.8672,282.2586,0.00037226,5.643e-05,0.0,0 STARLINK-4294,1 53176U 22083AW  24136.49792379  .00005643  00000-0  37226-3 0  9994,2 53176  53.2134 246.2146 0002376  77.8672 282.2586 15.08851141102080,6917.846,95.437,541.355,538.068,0.0
53176.0,STARLINK-4294,PAYLOAD,2024-05-15 13:32:23,15.08847163,0.0001831,53.2163,245.9202,70.8107,289.3083,0.00040677,6.193e-05,0.0,0 STARLINK-4294,1 53176U 22083AW  24136.56416239  .00006193  00000-0  40677-3 0  9995,2 53176  53.2163 245.9202 0001831  70.8107 289.3083 15.08847163101451,6917.858,95.437,540.99,538.457,0.0
53176.0,STARLINK-4294,PAYLOAD,2024-05-15 15:07:45,15.08854748,0.0001518,53.2168,245.6181,98.4256,261.6908,0.00062004,9.598e-05,0.0,0 STARLINK-4294,1 53176U 22083AW  24136.63039133  .00009598  00000-0  62004-3 0  9997,2 53176  53.2168 245.6181 0001518  98.4256 261.6908 15.08854748102101,6917.835,95.437,540.75,538.65,0.0
53176.0,STARLINK-4294,PAYLOAD,2024-05-16 00:40:05,15.08853603,0.0001555,53.2184,243.8352,85.0258,275.0912,0.00030365,4.55e-05,0.0,0 STARLINK-4294,1 53176U 22083AW  24137.02783836  .00004550  00000-0  30365-3 0  9995,2 53176  53.2184 243.8352 0001555  85.0258 275.0912 15.08853603102163,6917.839,95.437,540.78,538.628,0.0
53176.0,STARLINK-4294,PAYLOAD,2024-05-16 13:23:09,15.08862308,0.0001614,53.215,241.4563,91.0803,269.0374,0.00064712,0.00010032,0.0,0 STARLINK-4294,1 53176U 22083AW  24137.55775337  .00010032  00000-0  64712-3 0  9995,2 53176  53.2150 241.4563 0001614  91.0803 269.0374 15.08862308101608,6917.812,95.436,540.794,538.561,0.0
53176.0,STARLINK-4294,PAYLOAD,2024-05-17 13:13:56,15.08848237,0.0001594,53.2179,236.9958,96.9171,263.2002,9.1207e-05,1.164e-05,0.0,0 STARLINK-4294,1 53176U 22083AW  24138.55135240  .00001164  00000-0  91207-4 0  9995,2 53176  53.2179 236.9958 0001594  96.9171 263.2002 15.08848237102391,6917.855,95.437,540.823,538.618,0.0
53176.0,STARLINK-4294,PAYLOAD,2024-05-18 13:04:44,15.08837003,0.0001293,53.2164,232.5355,76.8551,283.2586,0.00031446,4.72e-05,0.0,0 STARLINK-4294,1 53176U 22083AW  24139.54495874  .00004720  00000-0  31446-3 0  9996,2 53176  53.2164 232.5355 0001293  76.8551 283.2586 15.08837003102548,6917.89,95.438,540.649,538.86,0.0
53176.0,STARLINK-4294,PAYLOAD,2024-05-18 22:37:03,15.08824144,0.0001364,53.2159,230.7497,76.5588,283.5556,-2.2011e-05,-6.38e-06,0.0,0 STARLINK-4294,1 53176U 22083AW  24139.94240413 -.00000638  00000-0 -22011-4 0  9992,2 53176  53.2159 230.7497 0001364  76.5588 283.5556 15.08824144101962,6917.929,95.439,540.737,538.85,0.0
53176.0,STARLINK-4294,PAYLOAD,2024-05-19 12:55:33,15.08817141,0.0001685,53.2184,228.0791,101.4612,258.657,0.00061794,9.554e-05,0.0,0 STARLINK-4294,1 53176U 22083AW  24140.53857967  .00009554  00000-0  61794-3 0  9991,2 53176  53.2184 228.0791 0001685 101.4612 258.6570 15.08817141102058,6917.95,95.439,540.981,538.65,0.0
53176.0,STARLINK-4294,PAYLOAD,2024-05-20 11:10:56,15.08872103,0.0001411,53.2176,223.9163,108.0953,252.0193,0.0014734,0.0002326,0.0,0 STARLINK-4294,1 53176U 22083AW  24141.46593099  .00023260  00000-0  14734-2 0  9998,2 53176  53.2176 223.9163 0001411 108.0953 252.0193 15.08872103102838,6917.782,95.436,540.623,538.671,0.0
53176.0,STARLINK-4294,PAYLOAD,2024-05-21 12:37:06,15.08854973,0.0001132,53.2156,219.1537,127.2303,232.8793,0.0009482,0.00014841,0.0,0 STARLINK-4294,1 53176U 22083AW  24142.52576579  .00014841  00000-0  94820-3 0  9990,2 53176  53.2156 219.1537 0001132 127.2303 232.8793 15.08854973102994,6917.835,95.437,540.483,538.917,0.0
53176.0,STARLINK-4294,PAYLOAD,2024-05-22 12:27:53,15.08844874,0.0001292,53.2163,214.6956,78.4059,281.7078,0.00042178,6.432e-05,0.0,0 STARLINK-4294,1 53176U 22083AW  24143.51936923  .00006432  00000-0  42178-3 0  9999,2 53176  53.2163 214.6956 0001292  78.4059 281.7078 15.08844874103145,6917.865,95.437,540.624,538.837,0.0
53176.0,STARLINK-4294,PAYLOAD,2024-05-23 10:43:17,15.08844388,0.0001753,53.2163,210.5332,57.9919,302.1244,0.00017119,2.438e-05,0.0,0 STARLINK-4294,1 53176U 22083AW  24144.44672959  .00002438  00000-0  17119-3 0  9997,2 53176  53.2163 210.5332 0001753  57.9919 302.1244 15.08844388103285,6917.867,95.437,540.945,538.519,0.0
53176.0,STARLINK-4294,PAYLOAD,2024-05-24 10:34:03,15.08849677,0.0001363,53.2153,206.0735,80.6962,279.4184,0.00018819,2.709e-05,0.0,0 STARLINK-4294,1 53176U 22083AW  24145.44032377  .00002709  00000-0  18819-3 0  9991,2 53176  53.2153 206.0735 0001363  80.6962 279.4184 15.08849677102799,6917.851,95.437,540.659,538.773,0.0
53176.0,STARLINK-4294,PAYLOAD,2024-05-25 10:24:52,15.08819718,0.0001293,53.2152,201.6116,91.4872,268.6268,-0.00015517,-2.755e-05,0.0,0 STARLINK-4294,1 53176U 22083AW  24146.43394502 -.00002755  00000-0 -15517-3 0  9997,2 53176  53.2152 201.6116 0001293  91.4872 268.6268 15.08819718103588,6917.942,95.439,540.702,538.913,0.0
53176.0,STARLINK-4294,PAYLOAD,2024-05-26 03:54:07,15.08832186,0.0001451,53.2159,198.3418,78.7918,281.3237,5.1914e-05,5.38e-06,0.0,0 STARLINK-4294,1 53176U 22083AW  24147.16258292  .00000538  00000-0  51914-4 0  9990,2 53176  53.2159 198.3418 0001451  78.7918 281.3237 15.08832186103691,6917.904,95.438,540.773,538.765,0.0
53176.0,STARLINK-4294,PAYLOAD,2024-05-26 10:15:39,15.0884202,0.0001674,53.2162,197.1545,77.4348,282.6832,0.00023012,3.376e-05,0.0,0 STARLINK-4294,1 53176U 22083AW  24147.42754029  .00003376  00000-0  23012-3 0  9998,2 53176  53.2162 197.1545 0001674  77.4348 282.6832 15.08842020103731,6917.874,95.437,540.897,538.581,0.0
53176.0,STARLINK-4294,PAYLOAD,2024-05-26 19:47:58,15.08838219,0.0001317,53.216,195.3679,90.2139,269.9004,0.00026702,3.964e-05,0.0,0 STARLINK-4294,1 53176U 22083AW  24147.82498305  .00003964  00000-0  26702-3 0  9996,2 53176  53.2160 195.3679 0001317  90.2139 269.9004 15.08838219103152,6917.886,95.438,540.662,538.84,0.0
53176.0,STARLINK-4294,PAYLOAD,2024-05-27 10:06:26,15.08848974,0.0001632,53.2166,192.697,85.6948,274.4231,0.00040833,6.218e-05,0.0,0 STARLINK-4294,1 53176U 22083AW  24148.42114078  .00006218  00000-0  40833-3 0  9991,2 53176  53.2166 192.6970 0001632  85.6948 274.4231 15.08848974103240,6917.853,95.437,540.847,538.589,0.0
53176.0,STARLINK-4294,PAYLOAD,2024-05-28 03:35:40,15.08849221,0.0001648,53.2161,189.4211,82.5859,277.5321,3.4841e-06,-2.33e-06,0.0,0 STARLINK-4294,1 53176U 22083AW  24149.14977455 -.00000233  00000-0  34841-5 0  9993,2 53176  53.2161 189.4211 0001648  82.5859 277.5321 15.08849221103993,6917.852,95.437,540.857,538.577,0.0
53176.0,STARLINK-4294,PAYLOAD,2024-05-28 09:57:12,15.08848697,0.0001627,53.2158,188.2293,76.2436,283.8737,1.5194e-07,-2.86e-06,0.0,0 STARLINK-4294,1 53176U 22083AW  24149.41473354 -.00000286  00000-0  15194-6 0  9991,2 53176  53.2158 188.2293 0001627  76.2436 283.8737 15.08848697103395,6917.854,95.437,540.844,538.593,0.0
53176.0,STARLINK-4294,PAYLOAD,2024-05-28 09:57:13,15.08848512,0.0001626,53.2161,188.2312,80.6993,279.4183,7.4534e-06,-1.69e-06,0.0,0 STARLINK-4294,1 53176U 22083AW  24149.41473392 -.00000169  00000-0  74534-5 0  9995,2 53176  53.2161 188.2312 0001626  80.6993 279.4183 15.08848512103399,6917.854,95.437,540.844,538.595,0.0
53176.0,STARLINK-4294,PAYLOAD,2024-05-29 11:23:23,15.08843358,0.0001591,53.2167,183.4714,76.2782,283.8387,-3.772e-06,-3.48e-06,0.0,0 STARLINK-4294,1 53176U 22083AW  24150.47457762 -.00000348  00000-0 -37720-5 0  9992,2 53176  53.2167 183.4714 0001591  76.2782 283.8387 15.08843358104193,6917.87,95.437,540.836,538.634,0.0
53176.0,STARLINK-4294,PAYLOAD,2024-05-30 09:38:46,15.08845932,0.0001536,53.2166,179.3099,76.4343,283.682,6.6663e-05,7.73e-06,0.0,0 STARLINK-4294,1 53176U 22083AW  24151.40193251  .00000773  00000-0  66663-4 0  9993,2 53176  53.2166 179.3099 0001536  76.4343 283.6820 15.08845932103690,6917.862,95.437,540.79,538.665,0.0
53176.0,STARLINK-4294,PAYLOAD,2024-05-31 07:54:11,15.08842735,0.0001594,53.2167,175.1471,75.1753,284.9415,7.2408e-05,8.65e-06,0.0,0 STARLINK-4294,1 53176U 22083AW  24152.32929413  .00000865  00000-0  72408-4 0  9998,2 53176  53.2167 175.1471 0001594  75.1753 284.9415 15.08842735104473,6917.872,95.437,540.84,538.634,0.0
53176.0,STARLINK-4294,PAYLOAD,2024-05-31 19:01:52,15.08842124,0.0001436,53.2163,173.0639,87.7147,272.4009,5.7687e-05,6.3e-06,0.0,0 STARLINK-4294,1 53176U 22083AW  24152.79297283  .00000630  00000-0  57687-4 0  9994,2 53176  53.2163 173.0639 0001436  87.7147 272.4009 15.08842124103903,6917.874,95.437,540.732,538.745,0.0
53176.0,STARLINK-4294,PAYLOAD,2024-06-01 07:44:57,15.08841698,0.0001463,53.2163,170.6843,90.8013,269.3147,3.8997e-05,3.33e-06,0.0,0 STARLINK-4294,1 53176U 22083AW  24153.32289260  .00000333  00000-0  38997-4 0  9993,2 53176  53.2163 170.6843 0001463  90.8013 269.3147 15.08841698103981,6917.875,95.437,540.752,538.728,0.0
